#cP2021 10  3  0  0  0.00000000      96 ORBIT IGb14 HLM  IGS
## 2178      0.00000000   900.00000000 59490 0.0000000000000
+   32   G01G02G03G04G05G06G07G08G09G10G11G12G13G14G15G16G17
+        G18G19G20G21G22G23G24G25G26G27G28G29G30G31G32  0  0
+          0  0  0  0  0  0  0  0  0  0  0  0  0  0  0  0  0
+          0  0  0  0  0  0  0  0  0  0  0  0  0  0  0  0  0
+          0  0  0  0  0  0  0  0  0  0  0  0  0  0  0  0  0
++         2  2  2  2  1  2  2  2  2  1  3  2  2  2  2  2  2
++         2  2  1  2  1  2  2  1  2  2  2  2  2  2  2  0  0
++         0  0  0  0  0  0  0  0  0  0  0  0  0  0  0  0  0
++         0  0  0  0  0  0  0  0  0  0  0  0  0  0  0  0  0
++         0  0  0  0  0  0  0  0  0  0  0  0  0  0  0  0  0
%c G  cc GPS ccc cccc cccc cccc cccc ccccc ccccc ccccc ccccc
%c cc cc ccc ccc cccc cccc cccc cccc ccccc ccccc ccccc ccccc
%f  1.2500000  1.025000000  0.00000000000  0.000000000000000
%f  0.0000000  0.000000000  0.00000000000  0.000000000000000
%i    0    0    0    0      0      0      0      0         0
%i    0    0    0    0      0      0      0      0         0
/* FINAL ORBIT COMBINATION FROM WEIGHTED AVERAGE OF:        
/* cod emr esa gfz grg jpl mit ngs sio                      
/* REFERENCED TO IGS TIME (IGST) AND TO WEIGHTED MEAN POLE: 
/* PCV:IGS14_2178 OL/AL:FES2004  NONE     Y  ORB:CMB CLK:CMB
*  2021 10  3 21 45  0.00000000
PG01 -18084.049495  -7579.656838  17800.465333    549.565189  6  3  4  96       
PG02  14072.177640  22426.640782   2092.741661   -635.642571  7  5  5  86       
PG03 -17201.440858   2902.542212  19893.406827   -311.799214  4  3  4  63       
PG04 -26591.038206   -600.982836    168.272885   -204.005660  8  5  3 107       
PG05  11173.798243  11308.962621 -21421.202276    -56.476689  5  5  4  81       
PG06   3517.996294  22855.826924  13073.558808     87.038937  5  5  4  82       
PG07 -12544.904858   8687.940697 -21353.683466    256.391847  5  7  5  70       
PG08 -23264.684501  -6914.059704 -11163.706176    -38.788011  8  7  3  96       
PG09 -22896.448672   8340.839001 -10668.228285   -361.603250  5  6  5  97       
PG10  11195.687378 -23794.171300   2498.627665   -216.344576  6  3  3  92       
PG11  11357.016536  23971.362309   1496.824940     20.601099 10  8  5  51       
PG12  16944.756228   -762.399200  20152.931569   -106.384290  5  4  2  69       
PG13  17043.600337  13015.086619 -15915.467202    194.427651  5  6  5  65       
PG14 -12233.504541  23402.955886   2551.646583    -11.688701  6  2  2  93       
PG15  24047.894261   4948.699615 -10941.728328   -116.568755  4  6  5  66       
PG16  -6615.663766 -15423.187358 -20721.161161   -401.100268  8  5  4  93       
PG17 -11928.405146  13030.643402  20272.604916    513.948272  4  2  3  71       
PG18  11065.599959 -10620.174772 -21685.090975    314.853842  7  4  5  95       
PG19  -2070.464184  14535.697692  21861.245215     61.169019  5     4  73       
PG20   4255.053782  21211.348077 -15606.392403    518.821321  6  4  4  86       
PG21 -20076.830103 -13591.368664  12151.772267    145.879086  5  5  5  96       
PG22 -14890.597936  -5406.493489  21486.152105   -497.968561  6  3  3  87       
PG23  16659.670042 -18635.376842  -8890.004827     49.576100  2  4  5  55       
PG24  20021.681180  10719.302514  13829.464189    247.310946  6  3  4  81       
PG25  18323.267426 -11673.355034  14830.614449    218.596133  5  3  4  76       
PG26   1979.249262 -23556.301456 -11877.187600    141.050678  4  6  6  75       
PG27 -15050.054428 -12277.463596 -18463.099720   -201.464768  7  6  6  75       
PG28  -7967.664912  23639.209978   9949.733301    489.317979  7  6  9 112       
PG29  24971.669184  -4046.133346  -8242.824510   -421.002538  5  2  5 106       
PG30  -4206.728349  19082.830222 -17812.628376   -478.992006  6  4  5 100       
PG31  -4515.753330 -23523.926938  10846.948046   -143.072925  6  2  5  92       
PG32   7411.774627 -14825.147747  20831.922990     -6.481581  6  4  3  87       
*  2021 10  3 22  0  0.00000000
PG01 -19038.158144  -9297.559023  15951.557454    549.555397  7  2  4  95       
PG02  13678.596594  22310.723120   4923.599439   -635.644590  6  5  4  80       
PG03 -16201.202231    768.114049  20908.104621   -311.811734  4  4  4  96       
PG04 -26413.275986   -852.478641   3013.007318   -204.005365  8  4  3  88       
PG05  10103.383831  13434.920045 -20693.274067    -56.478231  5  5  4  85       
PG06   2527.072219  21576.075211  15302.747499     87.045991  5  6  4  77       
PG07 -13908.263216   6564.813794 -21312.417850    256.398021  6  7  5  57       
PG08 -21880.831187  -7184.990235 -13514.853755    -38.788682  8  7  4  86       
PG09 -23975.989572   8167.620490  -8108.755113   -361.603494  5  5  5  88       
PG10  11467.666301 -23777.244872   -389.729515   -216.351691  5  3  3  76       
PG11  10972.709525  23804.603700   4326.012308     20.601898 10  7  6  66       
PG12  15761.075415   1338.380430  21063.554533   -106.388944  5  4  2  63       
PG13  15144.848565  12992.721061 -17750.991154    194.432225  5  6  5  64       
PG14 -12537.374888  23379.238531   -292.047784    -11.695727  6  2  3  79       
PG15  22784.829148   5419.578986 -13231.878059   -116.566692  4  6  5  59       
PG16  -5313.450971 -17278.432685 -19545.849628   -401.105778  8  5  4  75       
PG17 -14078.749366  12919.938842  18887.811358    513.953549  3  1  4  74       
PG18  12388.953331  -8510.885150 -21907.151007    314.849557  6  4  5  89       
PG19  -4604.408869  14362.518407  21576.237655     61.173976  4  1  4  64       
PG20   3521.595721  22716.071258 -13555.289451    518.821260  6  3  4  80       
PG21 -20627.892035 -14607.313176   9704.124808    145.881009  5  4  6  89       
PG22 -14010.052142  -7667.281149  21408.069046   -497.959778  6  2  3  93       
PG23  16354.536360 -17493.758419 -11428.193654     49.571840  2  4  5  62       
PG24  20720.948957  12051.773043  11599.961055    247.317230  6  3  4  74       
PG25  17655.242171  -9923.554407  16778.568199    218.601712  5  3  3  77       
PG26   2750.985411 -24549.601810  -9423.598854    141.054327  5  6  6  99       
PG27 -12912.287704 -12467.045207 -19880.911544   -201.469345  7  6  6  57       
PG28  -8615.321452  24309.633808   7314.077230    489.311165  8  6  9 103       
PG29  25744.377787  -3850.296281  -5490.371661   -421.007139  5  1  6  96       
PG30  -5476.595054  17344.239755 -19207.213822   -478.995359  6  5  5  90       
PG31  -3562.472842 -22455.558352  13229.473374   -143.074918  6  3  4  86       
PG32   9721.474720 -14854.899867  19815.234637     -6.485056  6  5  2  80       
*  2021 10  3 22 15  0.00000000
PG01 -19954.476491 -10771.651780  13826.890450    549.545567  7  2  5  84       
PG02  13080.209335  21974.497506   7670.431397   -635.646303  6  5  4  84       
PG03 -15277.964313  -1502.812616  21559.016790   -311.824231  4  3  4  67       
PG04 -25931.110492  -1136.386697   5806.104998   -204.005099  8  3  2  98       
PG05   9181.155374  15520.764661 -19613.276115    -56.479343  4  5  5  68       
PG06   1326.479035  20161.921326  17268.952154     87.053042  5  6  4  72       
PG07 -15356.958649   4537.992157 -20892.708025    256.403709  7  7  6  70       
PG08 -20262.702514  -7562.291890 -15637.102013    -38.790784  8  6  5  88       
PG09 -24768.735388   8012.404896  -5410.274867   -361.603731  5  5  4  87       
PG10  11608.901534 -23472.581231  -3271.245895   -216.358929  5  3  3  83       
PG11  10408.620899  23392.655259   7080.792490     20.602767 10  6  6  58       
PG12  14651.741531   3571.991234  21602.666846   -106.394349  5  4  2  74       
PG13  13058.072326  13068.005421 -19286.053040    194.438063  4  5  5  74       
PG14 -12699.463968  23082.471799  -3130.697714    -11.702786  6  3  3  84       
PG15  21311.174006   6003.752838 -15302.815617   -116.563894  4  6  5  68       
PG16  -4183.068487 -19072.293268 -18036.609595   -401.111498  8  5  5  98       
PG17 -16062.477304  12921.476414  17189.019916    513.958687  4     4  56       
PG18  13824.926245  -6473.058793 -21752.587525    314.845274  6  4  5  92       
PG19  -7090.413974  14326.955906  20909.978913     61.178021  4  3  5  76       
PG20   2928.043254  24019.841592 -11274.182642    518.820961  6  3  5  85       
PG21 -21049.951866 -15384.455251   7098.821098    145.882625  6  4  6  75       
PG22 -13250.310364  -9938.973472  20967.729763   -497.951742  6  3  3  84       
PG23  16004.963918 -16082.064519 -13769.144358     49.567580  3  4  5  70       
PG24  21314.541005  13145.110404   9172.350906    247.323531  6  3  4  76       
PG25  16994.406288  -7953.021763  18429.162999    218.607342  5  3  3  83       
PG26   3371.156435 -25311.155708  -6805.612247    141.057959  5  6  6  95       
PG27 -10646.854777 -12790.198288 -20965.112632   -201.473920  7  6  7  83       
PG28  -9082.582849  24750.494937   4556.031550    489.305015  8  5  9  95       
PG29  26210.001517  -3686.383306  -2643.883898   -421.012727  6     5  98       
PG30  -6906.370279  15555.208880 -20267.248677   -478.998719  6  5  4 102       
PG31  -2410.160673 -21223.909852  15377.663448   -143.076770  6  4  4  75       
PG32  11895.591286 -14988.609054  18459.291217     -6.488451  6  5  3  70       
EOF
